KAITUO 1B               
1 40912U 15049P   18023.90912109  .00000999  00000-0  51767-4 0  9997
2 40912  97.4510  33.3108 0016148 147.6907 277.6872 15.18391624129771
TIANWANG 1C (TW-1C)     
1 40926U 15051B   18024.87524642  .00007422  00000-0  14962-3 0  9996
2 40926  97.2028  67.9677 0012732  82.4582 329.8923 15.46755013131140
TIANWANG 1B (TW-1B)     
1 40927U 15051C   18024.53503972  .00007287  00000-0  15301-3 0  9990
2 40927  97.2113  67.5403 0012460  93.7572  10.3796 15.45575850131015
TIANWANG 1A (TW-1A)     
1 40928U 15051D   18023.86601015  .00002960  00000-0  81555-4 0  9991
2 40928  97.2028  60.6456 0013826 118.3883   3.8290 15.37835045130593
LAPAN-A2 (IO-86)        
1 40931U 15052B   18023.71486045  .00000674  00000-0  48322-5 0  9990
2 40931   6.0018 100.3561 0013330 123.0706 237.0750 14.76562352125619
LQSAT                   
1 40958U 15057A   18024.83613826  .00000004  00000-0  84104-5 0  9992
2 40958  97.9563 101.0265 0019765  77.6266 282.7143 14.73012720123745
CHUBUSAT-2              
1 41338U 16012B   18024.50591818  .00000315  00000-0  17967-4 0  9994
2 41338  31.0028 146.4694 0013754  90.2359 269.9852 14.99908545106245
CHUBUSAT-3              
1 41339U 16012C   18024.73747816  .00000331  00000-0  19088-4 0  9995
2 41339  31.0067 143.8013 0013366  99.7155 260.4989 15.00100857106264
OUFTI-1                 
1 41458U 16025C   18024.83887477  .00001145  00000-0  64680-4 0  9992
2 41458  98.1542  79.9251 0170199 268.2220  89.9483 15.04172614 95887
E-ST@R-II               
1 41459U 16025D   18024.68884485  .00002232  00000-0  12180-3 0  9997
2 41459  98.1550  79.6575 0171002 269.0679  89.0944 15.03953900 95858
AAUSAT 4                
1 41460U 16025E   18024.72889830  .00001944  00000-0  10628-3 0  9997
2 41460  98.1503  80.0020 0161903 265.9911  92.2762 15.05203611 95901
NUSAT 1 (LO-87)         
1 41557U 16033B   18024.17327807  .00001243  00000-0  48284-4 0  9995
2 41557  97.4469 108.6178 0012617 311.2288  48.7863 15.27935506 92163
BEESAT-4                
1 41619U 16040W   18023.74915583  .00001302  00000-0  60572-4 0  9998
2 41619  97.4351  88.7854 0012256  24.4581 335.7234 15.21683990 76129
PRATHAM                 
1 41783U 16059A   18024.16027451  .00000041  00000-0  17395-4 0  9999
2 41783  98.1387  87.9012 0033596 185.6438 174.4390 14.62896095 70903
ALSAT 1N                
1 41789U 16059G   18024.71684553  .00000085  00000-0  25241-4 0  9995
2 41789  98.1382  89.3844 0028349 175.9175 184.2264 14.64121641 71026
NAYIF-1 (EO-88)         
1 42017U 17008BX  18023.92869400  .00001443  00000-0  62606-4 0  9998
2 42017  97.4679  89.7437 0007149 154.9084 205.2502 15.23970281 52098
LILACSAT-1              
1 42725U 98067ME  18024.85656267  .00015685  00000-0  17404-3 0  9994
2 42725  51.6385   5.5547 0006076  58.0859 302.0726 15.63114954 38055
MAX VALIER SAT          
1 42778U 17036P   18024.71023837  .00000812  00000-0  39723-4 0  9990
2 42778  97.4241  86.6783 0012134 205.7203 154.3430 15.20993715 32697
FOX-1B (AO-91)          
1 43017U 17073E   18024.82129724  .00000973  00000-0  81809-4 0  9992
2 43017  97.6981 322.0292 0261049  18.5911 342.4622 14.77858447  9933
FOX-1D (AO-92)          
1 43137U 18004AC  18023.70786714  .00000974  00000-0  45288-4 0  9996
2 43137  97.5544  85.8853 0008215 241.1666 118.8745 15.22380754  1724
